SCD 1                   
1 22490U 93009B   26065.83987772  .00000588  00000+0  10973-3 0  9991
2 22490  24.9686 119.4840 0042144 134.4993  26.3982 14.46065997746287
TECHSAT 1B (GO-32)      
1 25397U 98043D   26065.57909317  .00000123  00000+0  73413-4 0  9997
2 25397  99.0025  55.7755 0001981 124.4522 235.6844 14.24405139436723
SCD 2                   
1 25504U 98060A   26065.84694969  .00000573  00000+0  10918-3 0  9999
2 25504  24.9966 343.2725 0016977 121.3662 290.6493 14.45481367445505
DLR-TUBSAT              
1 25757U 99029B   26065.43913873  .00000207  00000+0  62624-4 0  9994
2 25757  98.6662  57.5840 0013263 305.4603  54.5353 14.52396117418333
TERRA                   
1 25994U 99068A   26065.83852976  .00000593  00000+0  12991-3 0  9999
2 25994  97.9599 119.3821 0002530 158.2541 261.4297 14.61011205394660
MAROC-TUBSAT            
1 27004U 01056D   26065.70540832 -.00000028  00000+0  21321-4 0  9996
2 27004  99.8005 240.6497 0020362  47.0702  13.1687 13.70257820212153
AQUA                    
1 27424U 02022A   26065.87100705  .00001519  00000+0  31297-3 0  9992
2 27424  98.4172  33.1846 0000590  67.9692 313.8789 14.61969222268322
IRS-P6 (RESOURCESAT-1)  
1 28051U 03046A   26065.89295663  .00000222  00000+0  88495-4 0  9999
2 28051  98.2046 107.3539 0062984 289.6748 194.4049 14.36115000165844
SHIYAN-1 (SY-1)         
1 28220U 04012A   26065.46854648  .00016930  00000+0  56850-3 0  9990
2 28220  97.8771 137.0548 0006170  34.5738 325.5902 15.30920016195364
AURA                    
1 28376U 04026A   26065.82085498  .00001514  00000+0  31743-3 0  9992
2 28376  98.3307  21.5052 0001020  80.9710 279.1605 14.61141483151269
IRS-P5 (CARTOSAT-1)     
1 28649U 05017A   26065.52691737  .00002008  00000+0  20975-3 0  9996
2 28649  97.5415  93.2150 0002416  72.5351 287.6132 14.90752036128522
SINAH 1                 
1 28893U 05043D   26065.81591568  .00000710  00000+0  14443-3 0  9990
2 28893  98.2679 199.6358 0013513 233.9526 126.0425 14.64069637 85545
RESURS-DK 1             
1 29228U 06021A   26065.49374220  .00003685  00000+0  21594-3 0  9997
2 29228  69.9310 245.2906 0002256 164.5852 195.5383 15.12716018 87042
ARIRANG-2 (KOMPSAT-2)   
1 29268U 06031A   26065.82867792  .00000513  00000+0  10495-3 0  9995
2 29268  97.8294 255.2202 0015408  42.3141  85.8589 14.64585667 46497
LAPAN-TUBSAT            
1 29709U 07001A   26065.82943105  .00001129  00000+0  13623-3 0  9996
2 29709  98.1331  62.7650 0012621 152.5848 207.6035 14.85827373 35958
HAIYANG-1B              
1 31113U 07010A   26065.43122782  .00000161  00000+0  76995-4 0  9992
2 31113  98.3426  51.3029 0014159 141.8438 218.3751 14.30998233985935
COSMO-SKYMED 1          
1 31598U 07023A   26065.85622959  .00004791  00000+0  42676-3 0  9991
2 31598  97.8864 256.8656 0000957  98.6437 261.4892 14.96507864 14485
