[{"OBJECT_NAME":"SCD 1","OBJECT_ID":"1993-009B","EPOCH":"2026-03-06T20:09:25.435008","MEAN_MOTION":14.46065997,"ECCENTRICITY":0.0042144,"INCLINATION":24.9686,"RA_OF_ASC_NODE":119.484,"ARG_OF_PERICENTER":134.4993,"MEAN_ANOMALY":26.3982,"EPHEMERIS_TYPE":0,"CLASSIFICATION_TYPE":"U","NORAD_CAT_ID":22490,"ELEMENT_SET_NO":999,"REV_AT_EPOCH":74628,"BSTAR":0.00010973,"MEAN_MOTION_DOT":5.88e-6,"MEAN_MOTION_DDOT":0},{"OBJECT_NAME":"TECHSAT 1B (GO-32)","OBJECT_ID":"1998-043D","EPOCH":"2026-03-06T13:53:53.649888","MEAN_MOTION":14.24405139,"ECCENTRICITY":0.00019818,"INCLINATION":99.0025,"RA_OF_ASC_NODE":55.7755,"ARG_OF_PERICENTER":124.4522,"MEAN_ANOMALY":235.6844,"EPHEMERIS_TYPE":0,"CLASSIFICATION_TYPE":"U","NORAD_CAT_ID":25397,"ELEMENT_SET_NO":999,"REV_AT_EPOCH":43672,"BSTAR":7.3413085e-5,"MEAN_MOTION_DOT":1.23e-6,"MEAN_MOTION_DDOT":0},{"OBJECT_NAME":"SCD 2","OBJECT_ID":"1998-060A","EPOCH":"2026-03-06T20:19:36.453216","MEAN_MOTION":14.45481367,"ECCENTRICITY":0.0016977,"INCLINATION":24.9966,"RA_OF_ASC_NODE":343.2725,"ARG_OF_PERICENTER":121.3662,"MEAN_ANOMALY":290.6493,"EPHEMERIS_TYPE":0,"CLASSIFICATION_TYPE":"U","NORAD_CAT_ID":25504,"ELEMENT_SET_NO":999,"REV_AT_EPOCH":44550,"BSTAR":0.00010918,"MEAN_MOTION_DOT":5.73e-6,"MEAN_MOTION_DDOT":0},{"OBJECT_NAME":"DLR-TUBSAT","OBJECT_ID":"1999-029B","EPOCH":"2026-03-06T10:32:21.586272","MEAN_MOTION":14.52396117,"ECCENTRICITY":0.00132633,"INCLINATION":98.6662,"RA_OF_ASC_NODE":57.584,"ARG_OF_PERICENTER":305.4603,"MEAN_ANOMALY":54.5353,"EPHEMERIS_TYPE":0,"CLASSIFICATION_TYPE":"U","NORAD_CAT_ID":25757,"ELEMENT_SET_NO":999,"REV_AT_EPOCH":41833,"BSTAR":6.2623923e-5,"MEAN_MOTION_DOT":2.07e-6,"MEAN_MOTION_DDOT":0},{"OBJECT_NAME":"TERRA","OBJECT_ID":"1999-068A","EPOCH":"2026-03-06T20:07:28.971264","MEAN_MOTION":14.61011205,"ECCENTRICITY":0.000253,"INCLINATION":97.9599,"RA_OF_ASC_NODE":119.3821,"ARG_OF_PERICENTER":158.2541,"MEAN_ANOMALY":261.4297,"EPHEMERIS_TYPE":0,"CLASSIFICATION_TYPE":"U","NORAD_CAT_ID":25994,"ELEMENT_SET_NO":999,"REV_AT_EPOCH":39466,"BSTAR":0.00012991,"MEAN_MOTION_DOT":5.93e-6,"MEAN_MOTION_DDOT":0},{"OBJECT_NAME":"MAROC-TUBSAT","OBJECT_ID":"2001-056D","EPOCH":"2026-03-06T16:55:47.278848","MEAN_MOTION":13.7025782,"ECCENTRICITY":0.0020362,"INCLINATION":99.8005,"RA_OF_ASC_NODE":240.6497,"ARG_OF_PERICENTER":47.0702,"MEAN_ANOMALY":13.1687,"EPHEMERIS_TYPE":0,"CLASSIFICATION_TYPE":"U","NORAD_CAT_ID":27004,"ELEMENT_SET_NO":999,"REV_AT_EPOCH":21215,"BSTAR":2.1321e-5,"MEAN_MOTION_DOT":-2.8e-7,"MEAN_MOTION_DDOT":0},{"OBJECT_NAME":"AQUA","OBJECT_ID":"2002-022A","EPOCH":"2026-03-06T20:54:15.009120","MEAN_MOTION":14.61969222,"ECCENTRICITY":5.9e-5,"INCLINATION":98.4172,"RA_OF_ASC_NODE":33.1846,"ARG_OF_PERICENTER":67.9692,"MEAN_ANOMALY":313.8789,"EPHEMERIS_TYPE":0,"CLASSIFICATION_TYPE":"U","NORAD_CAT_ID":27424,"ELEMENT_SET_NO":999,"REV_AT_EPOCH":26832,"BSTAR":0.00031297,"MEAN_MOTION_DOT":1.519e-5,"MEAN_MOTION_DDOT":0},{"OBJECT_NAME":"IRS-P6 (RESOURCESAT-1)","OBJECT_ID":"2003-046A","EPOCH":"2026-03-06T21:25:51.452832","MEAN_MOTION":14.36115,"ECCENTRICITY":0.0062984,"INCLINATION":98.2046,"RA_OF_ASC_NODE":107.3539,"ARG_OF_PERICENTER":289.6748,"MEAN_ANOMALY":194.4049,"EPHEMERIS_TYPE":0,"CLASSIFICATION_TYPE":"U","NORAD_CAT_ID":28051,"ELEMENT_SET_NO":999,"REV_AT_EPOCH":16584,"BSTAR":8.8495e-5,"MEAN_MOTION_DOT":2.22e-6,"MEAN_MOTION_DDOT":0},{"OBJECT_NAME":"SHIYAN-1 (SY-1)","OBJECT_ID":"2004-012A","EPOCH":"2026-03-06T11:14:42.415872","MEAN_MOTION":15.30920016,"ECCENTRICITY":0.00061702,"INCLINATION":97.8771,"RA_OF_ASC_NODE":137.0548,"ARG_OF_PERICENTER":34.5738,"MEAN_ANOMALY":325.5902,"EPHEMERIS_TYPE":0,"CLASSIFICATION_TYPE":"U","NORAD_CAT_ID":28220,"ELEMENT_SET_NO":999,"REV_AT_EPOCH":19536,"BSTAR":0.00056849738,"MEAN_MOTION_DOT":0.0001693,"MEAN_MOTION_DDOT":0},{"OBJECT_NAME":"AURA","OBJECT_ID":"2004-026A","EPOCH":"2026-03-06T19:42:01.870272","MEAN_MOTION":14.61141483,"ECCENTRICITY":0.000102,"INCLINATION":98.3307,"RA_OF_ASC_NODE":21.5052,"ARG_OF_PERICENTER":80.971,"MEAN_ANOMALY":279.1605,"EPHEMERIS_TYPE":0,"CLASSIFICATION_TYPE":"U","NORAD_CAT_ID":28376,"ELEMENT_SET_NO":999,"REV_AT_EPOCH":15126,"BSTAR":0.00031743,"MEAN_MOTION_DOT":1.514e-5,"MEAN_MOTION_DDOT":0},{"OBJECT_NAME":"IRS-P5 (CARTOSAT-1)","OBJECT_ID":"2005-017A","EPOCH":"2026-03-06T12:38:45.660768","MEAN_MOTION":14.90752036,"ECCENTRICITY":0.00024163,"INCLINATION":97.5415,"RA_OF_ASC_NODE":93.215,"ARG_OF_PERICENTER":72.5351,"MEAN_ANOMALY":287.6132,"EPHEMERIS_TYPE":0,"CLASSIFICATION_TYPE":"U","NORAD_CAT_ID":28649,"ELEMENT_SET_NO":999,"REV_AT_EPOCH":12852,"BSTAR":0.00020974755,"MEAN_MOTION_DOT":2.008e-5,"MEAN_MOTION_DDOT":0},{"OBJECT_NAME":"SINAH 1","OBJECT_ID":"2005-043D","EPOCH":"2026-03-06T19:34:55.114752","MEAN_MOTION":14.64069637,"ECCENTRICITY":0.0013513,"INCLINATION":98.2679,"RA_OF_ASC_NODE":199.6358,"ARG_OF_PERICENTER":233.9526,"MEAN_ANOMALY":126.0425,"EPHEMERIS_TYPE":0,"CLASSIFICATION_TYPE":"U","NORAD_CAT_ID":28893,"ELEMENT_SET_NO":999,"REV_AT_EPOCH":8554,"BSTAR":0.00014443,"MEAN_MOTION_DOT":7.1e-6,"MEAN_MOTION_DDOT":0},{"OBJECT_NAME":"RESURS-DK 1","OBJECT_ID":"2006-021A","EPOCH":"2026-03-06T11:50:59.326080","MEAN_MOTION":15.12716018,"ECCENTRICITY":0.00022569,"INCLINATION":69.931,"RA_OF_ASC_NODE":245.2906,"ARG_OF_PERICENTER":164.5852,"MEAN_ANOMALY":195.5383,"EPHEMERIS_TYPE":0,"CLASSIFICATION_TYPE":"U","NORAD_CAT_ID":29228,"ELEMENT_SET_NO":999,"REV_AT_EPOCH":8704,"BSTAR":0.00021594061,"MEAN_MOTION_DOT":3.685e-5,"MEAN_MOTION_DDOT":0},{"OBJECT_NAME":"ARIRANG-2 (KOMPSAT-2)","OBJECT_ID":"2006-031A","EPOCH":"2026-03-06T19:53:17.772288","MEAN_MOTION":14.64585667,"ECCENTRICITY":0.0015408,"INCLINATION":97.8294,"RA_OF_ASC_NODE":255.2202,"ARG_OF_PERICENTER":42.3141,"MEAN_ANOMALY":85.8589,"EPHEMERIS_TYPE":0,"CLASSIFICATION_TYPE":"U","NORAD_CAT_ID":29268,"ELEMENT_SET_NO":999,"REV_AT_EPOCH":4649,"BSTAR":0.00010495,"MEAN_MOTION_DOT":5.13e-6,"MEAN_MOTION_DDOT":0},{"OBJECT_NAME":"LAPAN-TUBSAT","OBJECT_ID":"2007-001A","EPOCH":"2026-03-06T19:54:22.842720","MEAN_MOTION":14.85827373,"ECCENTRICITY":0.0012621,"INCLINATION":98.1331,"RA_OF_ASC_NODE":62.765,"ARG_OF_PERICENTER":152.5848,"MEAN_ANOMALY":207.6035,"EPHEMERIS_TYPE":0,"CLASSIFICATION_TYPE":"U","NORAD_CAT_ID":29709,"ELEMENT_SET_NO":999,"REV_AT_EPOCH":3595,"BSTAR":0.00013623,"MEAN_MOTION_DOT":1.129e-5,"MEAN_MOTION_DDOT":0},{"OBJECT_NAME":"HAIYANG-1B","OBJECT_ID":"2007-010A","EPOCH":"2026-03-06T10:20:58.083648","MEAN_MOTION":14.30998233,"ECCENTRICITY":0.00141592,"INCLINATION":98.3426,"RA_OF_ASC_NODE":51.3029,"ARG_OF_PERICENTER":141.8438,"MEAN_ANOMALY":218.3751,"EPHEMERIS_TYPE":0,"CLASSIFICATION_TYPE":"U","NORAD_CAT_ID":31113,"ELEMENT_SET_NO":999,"REV_AT_EPOCH":98593,"BSTAR":7.6994616e-5,"MEAN_MOTION_DOT":1.61e-6,"MEAN_MOTION_DDOT":0},{"OBJECT_NAME":"COSMO-SKYMED 1","OBJECT_ID":"2007-023A","EPOCH":"2026-03-06T20:32:58.236576","MEAN_MOTION":14.96507864,"ECCENTRICITY":9.57e-5,"INCLINATION":97.8864,"RA_OF_ASC_NODE":256.8656,"ARG_OF_PERICENTER":98.6437,"MEAN_ANOMALY":261.4892,"EPHEMERIS_TYPE":0,"CLASSIFICATION_TYPE":"U","NORAD_CAT_ID":31598,"ELEMENT_SET_NO":999,"REV_AT_EPOCH":1448,"BSTAR":0.00042676,"MEAN_MOTION_DOT":4.791e-5,"MEAN_MOTION_DDOT":0}]
